SL-16 R/B               
1 22566U 93016B   26031.10892497  .00000240  00000+0  14775-3 0  9994
2 22566  71.0085 294.1156 0009696   7.8162 352.3110 14.15302187696857
COSMOS 2242             
1 22626U 93024A   26031.12427345  .00002015  00000+0  17516-3 0  9996
2 22626  82.5210 302.6417 0018019  73.0949 287.2247 14.96381925774774
SL-16 R/B               
1 22803U 93059B   26030.85703554  .00000020  00000+0  33841-4 0  9993
2 22803  70.9897  90.9122 0019533 268.0537  91.8349 14.17223189674179
ARIANE 40 R/B           
1 22830U 93061H   26031.12952247  .00000277  00000+0  11724-3 0  9991
2 22830  98.4996 100.7435 0011284  40.5566 319.6457 14.32839704688721
COSMOS 2278             
1 23087U 94023A   26031.11392163 -.00000182  00000+0 -70340-4 0  9996
2 23087  71.0516 253.7134 0006292  84.3320 275.8520 14.14366110639493
SL-16 R/B               
1 23088U 94023B   26031.03605664 -.00000242  00000+0 -10056-3 0  9995
2 23088  71.0001 149.9639 0004354 319.9045  40.1756 14.15005117640761
SL-16 R/B               
1 23343U 94074B   26031.04606302  .00000615  00000+0  89114-4 0  9990
2 23343  97.7155  63.3805 0006349 357.1587  32.6664 14.79360304681687
SL-16 R/B               
1 23405U 94077B   26031.17370463 -.00000221  00000+0 -88273-4 0  9992
2 23405  70.9819  71.4173 0004670 245.9665 114.0969 14.15557439610929
ARIANE 40+ R/B          
1 23561U 95021B   26030.74270271  .00000405  00000+0  14313-3 0  9998
2 23561  98.4575 102.7246 0005741 252.1971 220.0197 14.39742676613788
SL-16 R/B               
1 23705U 95058B   26031.03751407  .00000047  00000+0  48231-4 0  9995
2 23705  71.0191 259.3059 0012817 186.9591 173.1356 14.15487991562524
SL-16 R/B               
1 24298U 96051B   26030.99320765  .00000074  00000+0  66766-4 0  9993
2 24298  70.7567 255.0304 0018154 200.0806 159.9602 14.12404813516320
ORBVIEW 2 (SEASTAR)     
1 24883U 97037A   26031.05718296  .00000382  00000+0  14895-3 0  9993
2 24883  98.8502 194.3858 0002598 150.2355 209.8978 14.35463866503076
