CCSDS_OMM_VERS = 2.0
CREATION_DATE  = 
ORIGINATOR     = 

OBJECT_NAME    = SL-16 R/B
OBJECT_ID      = 1993-016B
CENTER_NAME    = EARTH
REF_FRAME      = TEME
TIME_SYSTEM    = UTC
MEAN_ELEMENT_THEORY = SGP/SGP4

EPOCH          = 2026-01-31T02:36:51.117408
MEAN_MOTION    = 14.15302187
ECCENTRICITY   = .0009696
INCLINATION    = 71.0085
RA_OF_ASC_NODE = 294.1156
ARG_OF_PERICENTER = 7.8162
MEAN_ANOMALY   = 352.3110

EPHEMERIS_TYPE = 0
CLASSIFICATION_TYPE = U
NORAD_CAT_ID   = 22566
ELEMENT_SET_NO = 999
REV_AT_EPOCH   = 69685
BSTAR          = .14775E-3
MEAN_MOTION_DOT = .24E-5
MEAN_MOTION_DDOT = 0

CCSDS_OMM_VERS = 2.0
CREATION_DATE  = 
ORIGINATOR     = 

OBJECT_NAME    = COSMOS 2242
OBJECT_ID      = 1993-024A
CENTER_NAME    = EARTH
REF_FRAME      = TEME
TIME_SYSTEM    = UTC
MEAN_ELEMENT_THEORY = SGP/SGP4

EPOCH          = 2026-01-31T02:58:57.226080
MEAN_MOTION    = 14.96381925
ECCENTRICITY   = .0018019
INCLINATION    = 82.5210
RA_OF_ASC_NODE = 302.6417
ARG_OF_PERICENTER = 73.0949
MEAN_ANOMALY   = 287.2247

EPHEMERIS_TYPE = 0
CLASSIFICATION_TYPE = U
NORAD_CAT_ID   = 22626
ELEMENT_SET_NO = 999
REV_AT_EPOCH   = 77477
BSTAR          = .17516E-3
MEAN_MOTION_DOT = .2015E-4
MEAN_MOTION_DDOT = 0

CCSDS_OMM_VERS = 2.0
CREATION_DATE  = 
ORIGINATOR     = 

OBJECT_NAME    = SL-16 R/B
OBJECT_ID      = 1993-059B
CENTER_NAME    = EARTH
REF_FRAME      = TEME
TIME_SYSTEM    = UTC
MEAN_ELEMENT_THEORY = SGP/SGP4

EPOCH          = 2026-01-30T20:34:07.870656
MEAN_MOTION    = 14.17223189
ECCENTRICITY   = .0019533
INCLINATION    = 70.9897
RA_OF_ASC_NODE = 90.9122
ARG_OF_PERICENTER = 268.0537
MEAN_ANOMALY   = 91.8349

EPHEMERIS_TYPE = 0
CLASSIFICATION_TYPE = U
NORAD_CAT_ID   = 22803
ELEMENT_SET_NO = 999
REV_AT_EPOCH   = 67417
BSTAR          = .33841E-4
MEAN_MOTION_DOT = .2E-6
MEAN_MOTION_DDOT = 0

CCSDS_OMM_VERS = 2.0
CREATION_DATE  = 
ORIGINATOR     = 

OBJECT_NAME    = ARIANE 40 R/B
OBJECT_ID      = 1993-061H
CENTER_NAME    = EARTH
REF_FRAME      = TEME
TIME_SYSTEM    = UTC
MEAN_ELEMENT_THEORY = SGP/SGP4

EPOCH          = 2026-01-31T03:06:30.741408
MEAN_MOTION    = 14.32839704
ECCENTRICITY   = .0011284
INCLINATION    = 98.4996
RA_OF_ASC_NODE = 100.7435
ARG_OF_PERICENTER = 40.5566
MEAN_ANOMALY   = 319.6457

EPHEMERIS_TYPE = 0
CLASSIFICATION_TYPE = U
NORAD_CAT_ID   = 22830
ELEMENT_SET_NO = 999
REV_AT_EPOCH   = 68872
BSTAR          = .11724E-3
MEAN_MOTION_DOT = .277E-5
MEAN_MOTION_DDOT = 0

CCSDS_OMM_VERS = 2.0
CREATION_DATE  = 
ORIGINATOR     = 

OBJECT_NAME    = COSMOS 2278
OBJECT_ID      = 1994-023A
CENTER_NAME    = EARTH
REF_FRAME      = TEME
TIME_SYSTEM    = UTC
MEAN_ELEMENT_THEORY = SGP/SGP4

EPOCH          = 2026-01-31T02:44:02.828832
MEAN_MOTION    = 14.14366110
ECCENTRICITY   = .0006292
INCLINATION    = 71.0516
RA_OF_ASC_NODE = 253.7134
ARG_OF_PERICENTER = 84.3320
MEAN_ANOMALY   = 275.8520

EPHEMERIS_TYPE = 0
CLASSIFICATION_TYPE = U
NORAD_CAT_ID   = 23087
ELEMENT_SET_NO = 999
REV_AT_EPOCH   = 63949
BSTAR          = -.7034E-4
MEAN_MOTION_DOT = -.182E-5
MEAN_MOTION_DDOT = 0

CCSDS_OMM_VERS = 2.0
CREATION_DATE  = 
ORIGINATOR     = 

OBJECT_NAME    = SL-16 R/B
OBJECT_ID      = 1994-023B
CENTER_NAME    = EARTH
REF_FRAME      = TEME
TIME_SYSTEM    = UTC
MEAN_ELEMENT_THEORY = SGP/SGP4

EPOCH          = 2026-01-31T00:51:55.293696
MEAN_MOTION    = 14.15005117
ECCENTRICITY   = .0004354
INCLINATION    = 71.0001
RA_OF_ASC_NODE = 149.9639
ARG_OF_PERICENTER = 319.9045
MEAN_ANOMALY   = 40.1756

EPHEMERIS_TYPE = 0
CLASSIFICATION_TYPE = U
NORAD_CAT_ID   = 23088
ELEMENT_SET_NO = 999
REV_AT_EPOCH   = 64076
BSTAR          = -.10056E-3
MEAN_MOTION_DOT = -.242E-5
MEAN_MOTION_DDOT = 0

CCSDS_OMM_VERS = 2.0
CREATION_DATE  = 
ORIGINATOR     = 

OBJECT_NAME    = SL-16 R/B
OBJECT_ID      = 1994-074B
CENTER_NAME    = EARTH
REF_FRAME      = TEME
TIME_SYSTEM    = UTC
MEAN_ELEMENT_THEORY = SGP/SGP4

EPOCH          = 2026-01-31T01:06:19.844928
MEAN_MOTION    = 14.79360304
ECCENTRICITY   = .0006349
INCLINATION    = 97.7155
RA_OF_ASC_NODE = 63.3805
ARG_OF_PERICENTER = 357.1587
MEAN_ANOMALY   = 32.6664

EPHEMERIS_TYPE = 0
CLASSIFICATION_TYPE = U
NORAD_CAT_ID   = 23343
ELEMENT_SET_NO = 999
REV_AT_EPOCH   = 68168
BSTAR          = .89114E-4
MEAN_MOTION_DOT = .615E-5
MEAN_MOTION_DDOT = 0

CCSDS_OMM_VERS = 2.0
CREATION_DATE  = 
ORIGINATOR     = 

OBJECT_NAME    = SL-16 R/B
OBJECT_ID      = 1994-077B
CENTER_NAME    = EARTH
REF_FRAME      = TEME
TIME_SYSTEM    = UTC
MEAN_ELEMENT_THEORY = SGP/SGP4

EPOCH          = 2026-01-31T04:10:08.080032
MEAN_MOTION    = 14.15557439
ECCENTRICITY   = .000467
INCLINATION    = 70.9819
RA_OF_ASC_NODE = 71.4173
ARG_OF_PERICENTER = 245.9665
MEAN_ANOMALY   = 114.0969

EPHEMERIS_TYPE = 0
CLASSIFICATION_TYPE = U
NORAD_CAT_ID   = 23405
ELEMENT_SET_NO = 999
REV_AT_EPOCH   = 61092
BSTAR          = -.88273E-4
MEAN_MOTION_DOT = -.221E-5
MEAN_MOTION_DDOT = 0

CCSDS_OMM_VERS = 2.0
CREATION_DATE  = 
ORIGINATOR     = 

OBJECT_NAME    = ARIANE 40+ R/B
OBJECT_ID      = 1995-021B
CENTER_NAME    = EARTH
REF_FRAME      = TEME
TIME_SYSTEM    = UTC
MEAN_ELEMENT_THEORY = SGP/SGP4

EPOCH          = 2026-01-30T17:49:29.514144
MEAN_MOTION    = 14.39742676
ECCENTRICITY   = .00057417
INCLINATION    = 98.4575
RA_OF_ASC_NODE = 102.7246
ARG_OF_PERICENTER = 252.1971
MEAN_ANOMALY   = 220.0197

EPHEMERIS_TYPE = 0
CLASSIFICATION_TYPE = U
NORAD_CAT_ID   = 23561
ELEMENT_SET_NO = 999
REV_AT_EPOCH   = 61378
BSTAR          = .14312894E-3
MEAN_MOTION_DOT = .405E-5
MEAN_MOTION_DDOT = 0

CCSDS_OMM_VERS = 2.0
CREATION_DATE  = 
ORIGINATOR     = 

OBJECT_NAME    = SL-16 R/B
OBJECT_ID      = 1995-058B
CENTER_NAME    = EARTH
REF_FRAME      = TEME
TIME_SYSTEM    = UTC
MEAN_ELEMENT_THEORY = SGP/SGP4

EPOCH          = 2026-01-31T00:54:01.215648
MEAN_MOTION    = 14.15487991
ECCENTRICITY   = .0012817
INCLINATION    = 71.0191
RA_OF_ASC_NODE = 259.3059
ARG_OF_PERICENTER = 186.9591
MEAN_ANOMALY   = 173.1356

EPHEMERIS_TYPE = 0
CLASSIFICATION_TYPE = U
NORAD_CAT_ID   = 23705
ELEMENT_SET_NO = 999
REV_AT_EPOCH   = 56252
BSTAR          = .48231E-4
MEAN_MOTION_DOT = .47E-6
MEAN_MOTION_DDOT = 0

CCSDS_OMM_VERS = 2.0
CREATION_DATE  = 
ORIGINATOR     = 

OBJECT_NAME    = SL-16 R/B
OBJECT_ID      = 1996-051B
CENTER_NAME    = EARTH
REF_FRAME      = TEME
TIME_SYSTEM    = UTC
MEAN_ELEMENT_THEORY = SGP/SGP4

EPOCH          = 2026-01-30T23:50:13.140960
MEAN_MOTION    = 14.12404813
ECCENTRICITY   = .0018154
INCLINATION    = 70.7567
RA_OF_ASC_NODE = 255.0304
ARG_OF_PERICENTER = 200.0806
MEAN_ANOMALY   = 159.9602

EPHEMERIS_TYPE = 0
CLASSIFICATION_TYPE = U
NORAD_CAT_ID   = 24298
ELEMENT_SET_NO = 999
REV_AT_EPOCH   = 51632
BSTAR          = .66766E-4
MEAN_MOTION_DOT = .74E-6
MEAN_MOTION_DDOT = 0

CCSDS_OMM_VERS = 2.0
CREATION_DATE  = 
ORIGINATOR     = 

OBJECT_NAME    = ORBVIEW 2 (SEASTAR)
OBJECT_ID      = 1997-037A
CENTER_NAME    = EARTH
REF_FRAME      = TEME
TIME_SYSTEM    = UTC
MEAN_ELEMENT_THEORY = SGP/SGP4

EPOCH          = 2026-01-31T01:22:20.607744
MEAN_MOTION    = 14.35463866
ECCENTRICITY   = .0002598
INCLINATION    = 98.8502
RA_OF_ASC_NODE = 194.3858
ARG_OF_PERICENTER = 150.2355
MEAN_ANOMALY   = 209.8978

EPHEMERIS_TYPE = 0
CLASSIFICATION_TYPE = U
NORAD_CAT_ID   = 24883
ELEMENT_SET_NO = 999
REV_AT_EPOCH   = 50307
BSTAR          = .14895E-3
MEAN_MOTION_DOT = .382E-5
MEAN_MOTION_DDOT = 0

